CAS-2T & KS-1Q          
1 41847U 16066G   20219.58187083  .00000071  00000-0  20189-4 0  9999
2 41847  98.6501 270.5905 0366738  79.6121 284.6178 14.38082849196629
NAYIF-1 (EO-88)         
1 42017U 17008BX  20220.15303420  .00001502  00000-0  60060-4 0  9998
2 42017  97.3569 286.9710 0007444 132.8096 227.3770 15.26618725193280
MAX VALIER SAT          
1 42778U 17036P   20220.20713401  .00000858  00000-0  39727-4 0  9992
2 42778  97.3012 272.4306 0011660 195.6743 164.4134 15.22695062173456
RADFXSAT (FOX-1B)       
1 43017U 17073E   20219.31916786  .00000275  00000-0  27386-4 0  9992
2 43017  97.7194 129.6304 0255400 247.7864 109.6076 14.78985881146530
FOX-1D (AO-92)          
1 43137U 18004AC  20220.16731979  .00000949  00000-0  41891-4 0  9999
2 43137  97.4432 290.9805 0007791 230.7081 129.3465 15.24204125142763
DIWATA-2B               
1 43678U 18084H   20220.52340355  .00000026  00000-0  82879-5 0  9999
2 43678  97.8902 338.9405 0010343  16.7541 343.3977 14.91643388 96639
ES'HAIL 2               
1 43700U 18090A   20220.08591002  .00000133  00000-0  00000+0 0  9999
2 43700   0.0129 101.5153 0002073  63.8940 207.3389  1.00274308  6469
FOX-1CLIFF (AO-95)      
1 43770U 18099N   20220.44305072 -.00000133  00000-0 -69407-5 0  9999
2 43770  97.7033 290.9289 0015309  32.2556 327.9598 14.95018183 91533
ITASAT 1                
1 43786U 18099AE  20219.42476381  .00000426  00000-0  43737-4 0  9994
2 43786  97.7052 290.3839 0015922  29.6362 330.5757 14.95353694 91404
JY1SAT (JO-97)          
1 43803U 18099AX  20220.16928075  .00000006  00000-0  56922-5 0  9994
2 43803  97.7012 290.9228 0015818  27.2305 332.9742 14.95536648 91517
PSAT2 (NO-104)          
1 44354U 19036R   20219.76327911  .00015064  00000-0  21896-3 0  9994
2 44354  28.5296  50.0406 0361274 128.5264 234.8287 15.04309398 61407
BRICSAT2 (NO-103)       
1 44355U 19036S   20219.78012203  .00028599  00000-0  39505-3 0  9995
2 44355  28.5301  38.4457 0336707 147.3973 214.7887 15.10492660 61517
JAISAT-1                
1 44419U 19038F   20219.75843082  .00000834  00000-0  51006-4 0  9995
2 44419  97.5420 180.7768 0020548 321.1864  38.7890 15.12850381 60209
DUCHIFAT-3              
1 44854U 19089C   20220.18278653  .00000342  00000-0  34073-4 0  9998
2 44854  36.9671 158.5443 0007267 112.2962 247.8553 14.99096610 35911
RS-44 & BREEZE-KM R/B   
1 44909U 19096E   20219.70868738  .00000032  00000-0  73358-4 0  9997
2 44909  82.5242 321.9215 0218495 108.9689 253.5227 12.79707928 28619
ORBITAL FACTORY 2 (OF-2)
1 45113U 19071C   20220.12198575  .00002126  00000-0  76050-4 0  9999
2 45113  51.6432 118.7564 0012372 239.0534 120.9232 15.33503880 28904
HUSKYSAT-1              
1 45119U 19071J   20220.09340545  .00001258  00000-0  49429-4 0  9992
2 45119  51.6440 118.5658 0011686 235.0686 124.9198 15.33707672 28890
